OBJECT_NAME,OBJECT_ID,EPOCH,MEAN_MOTION,ECCENTRICITY,INCLINATION,RA_OF_ASC_NODE,ARG_OF_PERICENTER,MEAN_ANOMALY,EPHEMERIS_TYPE,CLASSIFICATION_TYPE,NORAD_CAT_ID,ELEMENT_SET_NO,REV_AT_EPOCH,BSTAR,MEAN_MOTION_DOT,MEAN_MOTION_DDOT
STARS (KUKAI),2009-002G,2026-05-13T10:18:22.084128,14.95501414,.0007065,98.1531,79.3312,289.6200,70.4257,0,U,33498,999,93328,.16151E-3,.1726E-4,0
KKS-1 (KISEKI),2009-002H,2026-05-13T20:20:43.375200,14.83030713,.0009002,98.1195,55.7481,48.7000,311.4987,0,U,33499,999,93110,.10415E-3,.792E-5,0
UK-DMC 2,2009-041C,2026-05-13T20:31:41.877984,14.75970909,.0001663,97.8777,269.6723,79.5481,280.5916,0,U,35683,999,90150,.3194E-4,.17E-5,0
OCEANSAT-2,2009-051A,2026-05-13T21:16:12.526176,13.99648553,.0015101,98.2299,124.1651,338.3877,21.6651,0,U,35931,999,87453,.88381E-4,.92E-6,0
SWISSCUBE,2009-051B,2026-05-13T04:57:21.263040,14.62411053,.0006178,98.4058,40.4838,333.2561,26.8321,0,U,35932,999,88404,.13125E-3,.614E-5,0
BEESAT-1,2009-051C,2026-05-13T12:57:48.538368,14.61661113,.0005015,98.3987,40.5309,350.4158,9.6946,0,U,35933,999,88412,.11264E-3,.511E-5,0
ITUPSAT1,2009-051E,2026-05-13T16:57:05.318784,14.60386079,.0007405,98.4071,39.9277,356.5944,3.5204,0,U,35935,999,88370,.10616E-3,.465E-5,0
DMSP 5D-3 F18 (USA 210),2009-057A,2026-05-13T20:14:47.427072,14.14876622,.0010983,98.9026,114.6911,355.1686,4.9379,0,U,35951,999,85473,.13357E-3,.213E-5,0
PROBA-2,2009-059B,2026-05-13T12:12:27.780768,14.54847140,.0013919,98.2449,317.3431,32.9341,327.2720,0,U,36037,999,87648,.35936E-4,.109E-5,0
YAOGAN-7,2009-069A,2026-05-13T15:06:06.709248,14.77973573,.0025275,98.0114,19.7030,147.9210,212.3545,0,U,36110,999,88452,.45236E-4,.275E-5,0
XIWANG-1 (HOPE-1),2009-072B,2026-05-13T19:35:26.744064,13.16438908,.0007099,100.4002,88.2008,317.0044,43.0514,0,U,36122,999,78848,.14231E-4,-.39E-6,0
COSMOS 2463,2010-017A,2026-05-13T11:14:06.055296,13.71663309,.0035224,82.9588,275.2168,224.7985,195.8572,0,U,36519,999,80317,.2466E-4,.37E-6,0
CARTOSAT-2B,2010-035A,2026-05-13T19:51:38.498688,14.78614727,.0010295,97.9983,184.5918,306.7456,53.2809,0,U,36795,999,85477,.20584E-4,.98E-6,0
TISAT 1,2010-035E,2026-05-13T08:18:35.820288,15.30347916,.0003488,98.0691,76.8483,52.2159,307.9396,0,U,36799,999,86237,.42092E-3,.12278E-3,0
YAOGAN-10,2010-038A,2026-05-13T20:47:45.504096,14.85238393,.000155,97.9008,157.5441,91.3879,11.2974,0,U,36834,999,85211,.76881E-4,.605E-5,0
SHIJIAN-6 04B (SJ-6 04B),2010-051B,2026-05-13T20:26:57.956352,14.99258838,.0012545,97.8732,138.9135,62.8808,297.3693,0,U,37180,999,85053,-.27759E-4,-.401E-5,0
FENGYUN 3B,2010-059A,2026-05-13T21:15:25.120224,14.14831402,.0020968,98.9651,179.7500,284.9867,248.1756,0,U,37214,999,80257,-.1459E-3,-.327E-5,0
COSMO-SKYMED 4,2010-060A,2026-05-13T19:27:38.196000,14.82157126,.0001401,97.8890,317.9094,83.9996,276.1377,0,U,37216,999,83947,.13224E-3,.1001E-4,0
O/OREOS (USA 219),2010-062C,2026-05-13T12:05:42.990720,14.93593949,.0013025,71.9682,158.8926,138.7463,221.4694,0,U,37224,999,11146,.11558E-3,.1158E-4,0
RESOURCESAT-2,2011-015A,2026-05-13T19:30:15.062112,14.21604412,.0011149,98.7654,201.4888,2.9676,357.1566,0,U,37387,999,78129,.39287E-4,.42E-6,0
YOUTHSAT,2011-015B,2026-05-13T13:34:53.334912,14.25615075,.0015765,98.3667,109.1858,84.0208,32.0869,0,U,37388,999,78270,.65846E-4,.115E-5,0
APRIZESAT 6,2011-044F,2026-05-13T06:22:51.447072,14.76866079,.0042676,98.2385,43.0503,195.9977,281.9310,0,U,37793,999,79199,.561E-4,.343E-5,0
JUGNU,2011-058B,2026-05-13T05:16:45.048576,14.13766034,.00187492,19.9589,160.8629,50.6973,19.1957,0,U,37839,999,75407,.60056786E-4,.382E-5,0
SRMSAT,2011-058D,2026-05-13T10:31:23.294784,14.11567807,.0011672,19.9724,269.8009,181.4461,226.2347,0,U,37841,999,75290,.54247E-4,.365E-5,0
SUOMI NPP,2011-061A,2026-05-13T19:15:16.776864,14.19509806,.000283,98.7941,74.9165,72.9498,287.1988,0,U,37849,999,75356,.4139E-4,.43E-6,0
YAOGAN-12,2011-066B,2026-05-13T20:21:09.465408,15.26138660,.000952,97.1178,174.0374,359.3054,0.8170,0,U,37875,999,80680,.15548E-3,.395E-4,0
