STARS (KUKAI)           
1 33498U 09002G   26133.42942227  .00001726  00000+0  16151-3 0  9997
2 33498  98.1531  79.3312 0007065 289.6200  70.4257 14.95501414933280
KKS-1 (KISEKI)          
1 33499U 09002H   26133.84772425  .00000792  00000+0  10415-3 0  9994
2 33499  98.1195  55.7481 0009002  48.7000 311.4987 14.83030713931100
UK-DMC 2                
1 35683U 09041C   26133.85534581  .00000170  00000+0  31940-4 0  9991
2 35683  97.8777 269.6723 0001663  79.5481 280.5916 14.75970909901504
OCEANSAT-2              
1 35931U 09051A   26133.88625609  .00000092  00000+0  88381-4 0  9997
2 35931  98.2299 124.1651 0015101 338.3877  21.6651 13.99648553874530
SWISSCUBE               
1 35932U 09051B   26133.20649610  .00000614  00000+0  13125-3 0  9995
2 35932  98.4058  40.4838 0006178 333.2561  26.8321 14.62411053884043
BEESAT-1                
1 35933U 09051C   26133.54014512  .00000511  00000+0  11264-3 0  9998
2 35933  98.3987  40.5309 0005015 350.4158   9.6946 14.61661113884124
ITUPSAT1                
1 35935U 09051E   26133.70631156  .00000465  00000+0  10616-3 0  9995
2 35935  98.4071  39.9277 0007405 356.5944   3.5204 14.60386079883709
DMSP 5D-3 F18 (USA 210) 
1 35951U 09057A   26133.84360448  .00000213  00000+0  13357-3 0  9993
2 35951  98.9026 114.6911 0010983 355.1686   4.9379 14.14876622854737
PROBA-2                 
1 36037U 09059B   26133.50865487  .00000109  00000+0  35936-4 0  9999
2 36037  98.2449 317.3431 0013919  32.9341 327.2720 14.54847140876488
YAOGAN-7                
1 36110U 09069A   26133.62924432  .00000275  00000+0  45236-4 0  9999
2 36110  98.0114  19.7030 0025275 147.9210 212.3545 14.77973573884523
XIWANG-1 (HOPE-1)       
1 36122U 09072B   26133.81628176 -.00000039  00000+0  14231-4 0  9993
2 36122 100.4002  88.2008 0007099 317.0044  43.0514 13.16438908788488
COSMOS 2463             
1 36519U 10017A   26133.46812564  .00000037  00000+0  24660-4 0  9995
2 36519  82.9588 275.2168 0035224 224.7985 195.8572 13.71663309803175
CARTOSAT-2B             
1 36795U 10035A   26133.82752892  .00000098  00000+0  20584-4 0  9996
2 36795  97.9983 184.5918 0010295 306.7456  53.2809 14.78614727854776
TISAT 1                 
1 36799U 10035E   26133.34624792  .00012278  00000+0  42092-3 0  9994
2 36799  98.0691  76.8483 0003488  52.2159 307.9396 15.30347916862374
YAOGAN-10               
1 36834U 10038A   26133.86649889  .00000605  00000+0  76881-4 0  9993
2 36834  97.9008 157.5441 0001550  91.3879  11.2974 14.85238393852111
SHIJIAN-6 04B (SJ-6 04B)
1 37180U 10051B   26133.85205968 -.00000401  00000+0 -27759-4 0  9994
2 37180  97.8732 138.9135 0012545  62.8808 297.3693 14.99258838850533
FENGYUN 3B              
1 37214U 10059A   26133.88570741 -.00000327  00000+0 -14590-3 0  9992
2 37214  98.9651 179.7500 0020968 284.9867 248.1756 14.14831402802578
COSMO-SKYMED 4          
1 37216U 10060A   26133.81085875  .00001001  00000+0  13224-3 0  9999
2 37216  97.8890 317.9094 0001401  83.9996 276.1377 14.82157126839476
O/OREOS (USA 219)       
1 37224U 10062C   26133.50396980  .00001158  00000+0  11558-3 0  9999
2 37224  71.9682 158.8926 0013025 138.7463 221.4694 14.93593949111462
RESOURCESAT-2           
1 37387U 11015A   26133.81267433  .00000042  00000+0  39287-4 0  9993
2 37387  98.7654 201.4888 0011149   2.9676 357.1566 14.21604412781291
YOUTHSAT                
1 37388U 11015B   26133.56589508  .00000115  00000+0  65846-4 0  9997
2 37388  98.3667 109.1858 0015765  84.0208  32.0869 14.25615075782706
APRIZESAT 6             
1 37793U 11044F   26133.26587323  .00000343  00000+0  56100-4 0  9995
2 37793  98.2385  43.0503 0042676 195.9977 281.9310 14.76866079791996
JUGNU                   
1 37839U 11058B   26133.21996584  .00000382  00000+0  60057-4 0  9998
2 37839  19.9589 160.8629 0018749  50.6973  19.1957 14.13766034754074
SRMSAT                  
1 37841U 11058D   26133.43846406  .00000365  00000+0  54247-4 0  9997
2 37841  19.9724 269.8009 0011672 181.4461 226.2347 14.11567807752902
SUOMI NPP               
1 37849U 11061A   26133.80227751  .00000043  00000+0  41390-4 0  9994
2 37849  98.7941  74.9165 0002830  72.9498 287.1988 14.19509806753567
YAOGAN-12               
1 37875U 11066B   26133.84802622  .00003950  00000+0  15548-3 0  9993
2 37875  97.1178 174.0374 0009520 359.3054   0.8170 15.26138660806802
